{"type":"FeatureCollection","name":"warsaw-districts","crs":{"type":"name","properties":{"name":"urn:ogc:def:crs:OGC:1.3:CRS84"}},"features":[{"type":"Feature","properties":{"name":"Bemowo","source":"City of Warsaw WFS GRANICE_DZIELNIC","updated":"17/04/18"},"geometry":{"type":"Polygon","coordinates":[[[20.889151,52.280465],[20.885985,52.280432],[20.885732,52.280163],[20.884911,52.279298],[20.884414,52.279093],[20.883788,52.279083],[20.879181,52.268281],[20.877451,52.263909],[20.875,52.261602],[20.867696,52.253945],[20.864,52.249993],[20.868057,52.2494],[20.876548,52.248551],[20.884023,52.247313],[20.885234,52.247178],[20.887976,52.247161],[20.890995,52.246894],[20.893158,52.244147],[20.893667,52.242146],[20.893138,52.239703],[20.889599,52.23195],[20.879691,52.231919],[20.876205,52.230217],[20.872746,52.228748],[20.872538,52.225668],[20.873843,52.22498],[20.875179,52.223633],[20.874882,52.219931],[20.874625,52.216702],[20.871935,52.215262],[20.870186,52.210046],[20.872754,52.209122],[20.87833,52.209238],[20.880842,52.209439],[20.881587,52.209801],[20.883533,52.210232],[20.88764,52.210948],[20.894805,52.211843],[20.897172,52.212138],[20.899112,52.2124],[20.905935,52.213212],[20.90865,52.213604],[20.912639,52.213963],[20.914394,52.214635],[20.915442,52.217055],[20.917766,52.217555],[20.920563,52.218097],[20.923035,52.219185],[20.924381,52.220604],[20.924541,52.222015],[20.923765,52.223508],[20.922663,52.225765],[20.921711,52.227591],[20.921447,52.228496],[20.921419,52.229805],[20.921729,52.230818],[20.922076,52.231979],[20.922453,52.233216],[20.922746,52.234215],[20.923207,52.235485],[20.924278,52.238858],[20.924963,52.240421],[20.924874,52.241174],[20.925596,52.242425],[20.927075,52.243989],[20.928129,52.244609],[20.932667,52.2469],[20.936273,52.248748],[20.93835,52.2498],[20.938966,52.250159],[20.942992,52.251856],[20.94786,52.255919],[20.951631,52.261217],[20.950317,52.26308],[20.947983,52.263757],[20.945207,52.264451],[20.942643,52.265213],[20.9415,52.266335],[20.938483,52.26718],[20.933594,52.268103],[20.929607,52.268957],[20.923223,52.270302],[20.919309,52.271025],[20.915193,52.272185],[20.912228,52.272875],[20.904107,52.274766],[20.899533,52.275826],[20.894426,52.27695],[20.890552,52.27894],[20.889151,52.280465]]]}},{"type":"Feature","properties":{"name":"Białołęka","source":"City of Warsaw WFS GRANICE_DZIELNIC","updated":"17/04/18"},"geometry":{"type":"Polygon","coordinates":[[[21.012704,52.294302],[21.014067,52.297782],[21.019881,52.296518],[21.023146,52.298697],[21.028712,52.299215],[21.031113,52.300239],[21.033024,52.300368],[21.038908,52.301855],[21.041298,52.302435],[21.046019,52.303631],[21.051382,52.304988],[21.056872,52.306168],[21.06153,52.308327],[21.062868,52.307399],[21.066124,52.30769],[21.083197,52.307773],[21.082071,52.311227],[21.078856,52.319392],[21.079603,52.322255],[21.082406,52.322675],[21.083804,52.322882],[21.085215,52.323106],[21.086266,52.32326],[21.087546,52.323457],[21.088277,52.323566],[21.08946,52.323925],[21.088793,52.325588],[21.088349,52.326642],[21.087943,52.32767],[21.086982,52.329877],[21.086252,52.331459],[21.082453,52.33735],[21.084675,52.343429],[21.085294,52.345042],[21.084631,52.346719],[21.084087,52.348096],[21.08376,52.348925],[21.083257,52.350199],[21.082424,52.352307],[21.081776,52.353948],[21.07627,52.35922],[21.073307,52.36721],[21.069597,52.36662],[21.066435,52.366087],[21.058256,52.36271],[21.049766,52.361856],[21.038458,52.362538],[21.02823,52.36437],[21.025166,52.362341],[21.02391,52.358883],[21.01998,52.356867],[21.009486,52.356794],[21.006492,52.362848],[20.998848,52.362812],[20.971273,52.358978],[20.956403,52.367914],[20.952524,52.366434],[20.94362,52.366361],[20.937156,52.362485],[20.939196,52.358356],[20.935593,52.359038],[20.93309,52.359167],[20.926993,52.35955],[20.923056,52.357241],[20.914074,52.351481],[20.920798,52.346342],[20.924297,52.342724],[20.925712,52.338723],[20.925111,52.328459],[20.927577,52.321875],[20.933547,52.316737],[20.941165,52.313578],[20.947642,52.310739],[20.952124,52.30731],[20.954047,52.304984],[20.95587,52.302641],[20.95876,52.300548],[20.962808,52.298464],[20.96712,52.296814],[20.972633,52.295357],[20.978312,52.294432],[20.984903,52.292904],[20.990502,52.29077],[20.995328,52.288051],[20.997127,52.289325],[20.998548,52.292303],[21.000482,52.293289],[21.002987,52.29137],[21.006004,52.291807],[21.012327,52.293955],[21.012704,52.294302]]]}},{"type":"Feature","properties":{"name":"Bielany","source":"City of Warsaw WFS GRANICE_DZIELNIC","updated":"17/04/18"},"geometry":{"type":"Polygon","coordinates":[[[20.925105,52.328944],[20.922247,52.32436],[20.913416,52.321913],[20.907767,52.322229],[20.902786,52.322452],[20.891466,52.317602],[20.88967,52.31405],[20.889786,52.313638],[20.886866,52.313204],[20.883404,52.313548],[20.881608,52.313647],[20.878787,52.313939],[20.876557,52.31458],[20.880469,52.309169],[20.877123,52.301976],[20.875827,52.298737],[20.877015,52.2931],[20.87632,52.287226],[20.878437,52.280058],[20.88412,52.279061],[20.884679,52.279172],[20.885606,52.28],[20.885825,52.280334],[20.887865,52.279986],[20.891697,52.278182],[20.895434,52.276728],[20.899797,52.275768],[20.905233,52.274505],[20.912818,52.272738],[20.915421,52.272132],[20.920148,52.270832],[20.923921,52.270162],[20.930527,52.268745],[20.935329,52.267803],[20.938863,52.267094],[20.941765,52.266241],[20.943036,52.264922],[20.945577,52.264355],[20.948495,52.263619],[20.950445,52.263058],[20.9543,52.26419],[20.956358,52.265857],[20.95791,52.267628],[20.958688,52.268414],[20.961938,52.270615],[20.962164,52.270731],[20.962903,52.271336],[20.964312,52.273451],[20.96592,52.274257],[20.968007,52.274514],[20.970382,52.275582],[20.971266,52.276187],[20.976122,52.278848],[20.98256,52.28217],[20.984552,52.283082],[20.985652,52.284073],[20.986063,52.286055],[20.990002,52.285159],[20.994386,52.288666],[20.991611,52.290231],[20.988578,52.291605],[20.985324,52.292773],[20.98167,52.293769],[20.977743,52.294522],[20.974399,52.295021],[20.971328,52.295644],[20.968357,52.296429],[20.96551,52.297371],[20.963185,52.298299],[20.960648,52.2995],[20.9585,52.300704],[20.956746,52.301884],[20.955403,52.303118],[20.954382,52.304464],[20.953427,52.305836],[20.95228,52.307151],[20.950314,52.308922],[20.947227,52.310978],[20.943629,52.312697],[20.939247,52.314177],[20.935174,52.315857],[20.931355,52.31818],[20.927917,52.321436],[20.925796,52.32509],[20.925105,52.328944]]]}},{"type":"Feature","properties":{"name":"Mokotów","source":"City of Warsaw WFS GRANICE_DZIELNIC","updated":"17/04/17"},"geometry":{"type":"Polygon","coordinates":[[[21.021599,52.213052],[21.017828,52.212669],[21.000973,52.209624],[20.986165,52.205139],[20.982438,52.192661],[20.985947,52.190494],[20.986579,52.189205],[20.98676,52.18409],[20.986814,52.181158],[20.986964,52.175361],[20.987625,52.170764],[20.988569,52.171365],[20.9933,52.17028],[20.996861,52.169302],[21.003896,52.168003],[21.004893,52.16777],[21.006146,52.167473],[21.00702,52.167277],[21.010331,52.167307],[21.015449,52.165653],[21.017107,52.164721],[21.025886,52.167304],[21.028101,52.167562],[21.030575,52.166869],[21.036305,52.168378],[21.039031,52.169648],[21.042865,52.172923],[21.043476,52.174878],[21.048284,52.172942],[21.051213,52.171368],[21.05402,52.169514],[21.059006,52.169971],[21.063621,52.170076],[21.068323,52.169992],[21.067798,52.170832],[21.065687,52.172827],[21.065318,52.175913],[21.066951,52.175928],[21.06847,52.176453],[21.069434,52.176944],[21.069984,52.177567],[21.071327,52.17814],[21.072637,52.17908],[21.077268,52.182186],[21.080533,52.184242],[21.082876,52.183965],[21.085643,52.182816],[21.088907,52.181401],[21.092376,52.180804],[21.094174,52.18232],[21.094935,52.184662],[21.095458,52.18567],[21.096714,52.186202],[21.098126,52.186501],[21.099181,52.187534],[21.099596,52.189393],[21.099146,52.190551],[21.099739,52.191517],[21.100149,52.19179],[21.101195,52.192301],[21.10184,52.192436],[21.103107,52.1932],[21.10431,52.197223],[21.104359,52.200341],[21.10402,52.203514],[21.102735,52.206662],[21.100531,52.20963],[21.097688,52.212152],[21.093965,52.214453],[21.089831,52.216229],[21.084724,52.217655],[21.079582,52.218425],[21.073889,52.218599],[21.068591,52.21846],[21.06356,52.218945],[21.060482,52.216545],[21.058465,52.216235],[21.049112,52.214793],[21.044817,52.209758],[21.036173,52.209537],[21.031315,52.206932],[21.030017,52.20681],[21.029416,52.206882],[21.028733,52.207138],[21.025716,52.209414],[21.024662,52.211204],[21.021925,52.213132],[21.021599,52.213052]]]}},{"type":"Feature","properties":{"name":"Ochota","source":"City of Warsaw WFS GRANICE_DZIELNIC","updated":"17/04/18"},"geometry":{"type":"Polygon","coordinates":[[[21.001812,52.227714],[21.001314,52.227887],[21.000626,52.227706],[20.997082,52.226953],[20.992308,52.225906],[20.992187,52.225883],[20.990292,52.225507],[20.989919,52.225535],[20.988267,52.225072],[20.98209,52.223698],[20.979399,52.222977],[20.97723,52.222321],[20.976579,52.222208],[20.976039,52.222088],[20.974497,52.221762],[20.973908,52.221646],[20.971859,52.220995],[20.970787,52.220356],[20.968504,52.219697],[20.968135,52.220073],[20.964268,52.219143],[20.963219,52.218815],[20.960944,52.218506],[20.960102,52.218385],[20.959655,52.218263],[20.959057,52.217802],[20.958047,52.217169],[20.957902,52.217062],[20.957259,52.216511],[20.956316,52.215524],[20.95475,52.214768],[20.952657,52.21436],[20.95083,52.214327],[20.948107,52.214408],[20.947189,52.214468],[20.945849,52.214538],[20.944924,52.214615],[20.943222,52.214281],[20.941158,52.213468],[20.938713,52.212545],[20.936213,52.212216],[20.937195,52.21189],[20.936875,52.211299],[20.936719,52.210309],[20.937122,52.209128],[20.937665,52.208558],[20.939563,52.206802],[20.941567,52.204843],[20.941906,52.204297],[20.943288,52.203157],[20.943925,52.202865],[20.945187,52.201812],[20.947225,52.200942],[20.950603,52.200119],[20.95166,52.199874],[20.956381,52.198799],[20.959819,52.198007],[20.962286,52.197475],[20.962637,52.197378],[20.963227,52.197211],[20.963817,52.197045],[20.964039,52.197031],[20.964594,52.196895],[20.969012,52.195873],[20.971802,52.195245],[20.9735,52.194828],[20.97515,52.194422],[20.976892,52.194006],[20.980483,52.193139],[20.98178,52.192827],[20.982049,52.193129],[20.983803,52.198247],[20.985263,52.202507],[20.987627,52.209404],[20.994558,52.209572],[20.998929,52.209264],[21.002175,52.209836],[21.007018,52.210691],[21.005635,52.2151],[21.005051,52.217206],[21.004941,52.219233],[21.00475,52.223017],[21.004628,52.223305],[21.002261,52.227012],[21.001812,52.227714]]]}},{"type":"Feature","properties":{"name":"Praga-Południe","source":"City of Warsaw WFS GRANICE_DZIELNIC","updated":"17/04/17"},"geometry":{"type":"Polygon","coordinates":[[[21.103473,52.222203],[21.11612,52.230321],[21.119465,52.232419],[21.124798,52.232502],[21.127706,52.233619],[21.128436,52.234943],[21.129572,52.236103],[21.130032,52.236548],[21.130666,52.237174],[21.131454,52.237923],[21.132272,52.238713],[21.131022,52.240188],[21.131387,52.244052],[21.123217,52.250441],[21.120391,52.252618],[21.118834,52.253831],[21.118166,52.25434],[21.116491,52.25554],[21.114794,52.25676],[21.113717,52.259508],[21.10662,52.259842],[21.089611,52.26049],[21.08239,52.260076],[21.073548,52.258716],[21.070018,52.258283],[21.066477,52.257822],[21.064677,52.257137],[21.063264,52.256135],[21.059064,52.254421],[21.055084,52.252959],[21.051266,52.25186],[21.047543,52.250416],[21.044902,52.249001],[21.0439,52.247905],[21.04344,52.24682],[21.043403,52.24484],[21.040816,52.240597],[21.037077,52.238418],[21.037683,52.237916],[21.038278,52.237408],[21.038861,52.236895],[21.039434,52.236377],[21.039994,52.235855],[21.040545,52.235327],[21.041084,52.234793],[21.041611,52.234255],[21.042126,52.233713],[21.04263,52.233166],[21.043121,52.232615],[21.043595,52.232065],[21.044054,52.231515],[21.044501,52.230961],[21.044936,52.230404],[21.045411,52.229782],[21.045939,52.229118],[21.046487,52.228461],[21.047056,52.22781],[21.047644,52.227165],[21.048251,52.226527],[21.048878,52.225897],[21.049504,52.225292],[21.050078,52.224764],[21.050685,52.224251],[21.051327,52.223755],[21.052004,52.223277],[21.052714,52.222816],[21.053375,52.222421],[21.054048,52.222048],[21.054742,52.221692],[21.055458,52.221352],[21.056195,52.221028],[21.056951,52.220722],[21.057725,52.220434],[21.058517,52.220164],[21.059324,52.219913],[21.060146,52.21968],[21.060982,52.219467],[21.061831,52.219273],[21.062691,52.219099],[21.06356,52.218945],[21.068591,52.21846],[21.073889,52.218599],[21.079582,52.218425],[21.084724,52.217655],[21.089831,52.216229],[21.095857,52.217179],[21.102634,52.221662],[21.103473,52.222203]]]}},{"type":"Feature","properties":{"name":"Praga-Północ","source":"City of Warsaw WFS GRANICE_DZIELNIC","updated":"17/04/18"},"geometry":{"type":"Polygon","coordinates":[[[21.005463,52.268123],[21.005786,52.267261],[21.006206,52.266283],[21.00668,52.265315],[21.007208,52.264356],[21.007788,52.26341],[21.008419,52.262476],[21.009102,52.261555],[21.010042,52.260408],[21.016357,52.253569],[21.018955,52.250801],[21.020371,52.249431],[21.02188,52.248192],[21.025727,52.245831],[21.030358,52.243193],[21.034438,52.240456],[21.040062,52.240273],[21.040848,52.240877],[21.043712,52.243159],[21.043441,52.245649],[21.04345,52.246504],[21.043564,52.24756],[21.0439,52.247905],[21.044372,52.248584],[21.044877,52.249042],[21.046058,52.249792],[21.048469,52.250778],[21.048687,52.250855],[21.052873,52.252413],[21.055084,52.252959],[21.05726,52.253776],[21.060215,52.254847],[21.062724,52.255816],[21.063651,52.256373],[21.064452,52.256992],[21.065365,52.257541],[21.066477,52.257822],[21.068477,52.258072],[21.070375,52.258295],[21.072674,52.258523],[21.073972,52.258976],[21.0715,52.259508],[21.067036,52.260535],[21.06535,52.26099],[21.06403,52.261339],[21.061551,52.261993],[21.056478,52.263416],[21.055131,52.263438],[21.052157,52.264339],[21.04473,52.266362],[21.041104,52.267377],[21.038566,52.26798],[21.038283,52.268065],[21.037206,52.268452],[21.032731,52.270521],[21.030461,52.271076],[21.027952,52.27148],[21.027136,52.271759],[21.023771,52.275462],[21.020694,52.281146],[21.01387,52.29351],[21.012927,52.294567],[21.012225,52.293886],[21.010227,52.293137],[21.005542,52.291701],[21.004395,52.292021],[21.001737,52.292197],[21.000584,52.2933],[20.999177,52.293147],[20.998341,52.292139],[20.998756,52.290316],[20.997125,52.289058],[20.997233,52.288422],[20.997641,52.286305],[20.998691,52.285371],[20.99966,52.284404],[21.000544,52.283407],[21.001342,52.282383],[21.002051,52.281335],[21.002669,52.280266],[21.003194,52.279178],[21.003828,52.27744],[21.004324,52.274929],[21.004393,52.273666],[21.004598,52.271561],[21.004823,52.270364],[21.005073,52.269365],[21.005378,52.268371],[21.005463,52.268123]]]}},{"type":"Feature","properties":{"name":"Rembertów","source":"City of Warsaw WFS GRANICE_DZIELNIC","updated":"17/04/18"},"geometry":{"type":"Polygon","coordinates":[[[21.142256,52.278554],[21.134155,52.277553],[21.122052,52.276042],[21.116595,52.275393],[21.107877,52.274346],[21.109545,52.271042],[21.109369,52.270587],[21.109039,52.268423],[21.108115,52.26776],[21.108414,52.266856],[21.108866,52.265491],[21.109053,52.264925],[21.109572,52.263359],[21.109687,52.263007],[21.109808,52.262634],[21.109885,52.262392],[21.10998,52.262098],[21.110106,52.261706],[21.110234,52.261308],[21.110674,52.259942],[21.112121,52.259586],[21.114588,52.259473],[21.11507,52.257332],[21.114744,52.256797],[21.11557,52.256199],[21.116088,52.255828],[21.116725,52.255372],[21.117299,52.254958],[21.118176,52.254333],[21.118468,52.254115],[21.118762,52.253887],[21.119439,52.253357],[21.120213,52.252756],[21.120514,52.252523],[21.121666,52.251689],[21.124303,52.249606],[21.127203,52.247341],[21.130486,52.244761],[21.132105,52.242609],[21.130305,52.240675],[21.131518,52.23959],[21.13258,52.239091],[21.132977,52.239352],[21.133275,52.239602],[21.133803,52.239904],[21.133985,52.240164],[21.135113,52.241017],[21.135466,52.241284],[21.135949,52.241667],[21.138144,52.243152],[21.139403,52.243262],[21.141538,52.239359],[21.143246,52.23936],[21.147791,52.240273],[21.153261,52.241428],[21.155584,52.241838],[21.158524,52.242434],[21.161999,52.242556],[21.164714,52.241758],[21.176695,52.245064],[21.184438,52.246605],[21.184192,52.247333],[21.182909,52.249504],[21.186303,52.250246],[21.186965,52.251394],[21.188888,52.252296],[21.189468,52.25128],[21.190391,52.249659],[21.190533,52.255967],[21.17932,52.256699],[21.182297,52.257766],[21.184282,52.259922],[21.184941,52.26402],[21.184682,52.266911],[21.183554,52.268128],[21.180368,52.269893],[21.176451,52.272115],[21.172038,52.27577],[21.171189,52.277317],[21.17222,52.286781],[21.166516,52.29063],[21.163197,52.288407],[21.161342,52.285576],[21.155624,52.283695],[21.150985,52.280817],[21.142256,52.278554]]]}},{"type":"Feature","properties":{"name":"Śródmieście","source":"City of Warsaw WFS GRANICE_DZIELNIC","updated":"17/04/18"},"geometry":{"type":"Polygon","coordinates":[[[21.061874,52.217196],[21.063186,52.219009],[21.062444,52.219147],[21.061709,52.219299],[21.060982,52.219467],[21.060265,52.219648],[21.059557,52.219844],[21.058861,52.220054],[21.058175,52.220278],[21.057502,52.220515],[21.056842,52.220765],[21.056195,52.221028],[21.055562,52.221304],[21.054945,52.221593],[21.054343,52.221894],[21.053757,52.222206],[21.053187,52.22253],[21.05261,52.222881],[21.052004,52.223277],[21.051422,52.223686],[21.050865,52.224108],[21.050334,52.224542],[21.049829,52.224988],[21.049337,52.225451],[21.048787,52.225986],[21.048251,52.226527],[21.047729,52.227074],[21.047222,52.227625],[21.046729,52.228181],[21.04625,52.228742],[21.045786,52.229308],[21.045338,52.229878],[21.044936,52.230404],[21.044564,52.230882],[21.044183,52.231357],[21.043794,52.23183],[21.043395,52.232299],[21.042981,52.232773],[21.042558,52.233244],[21.042126,52.233713],[21.041685,52.234178],[21.041236,52.23464],[21.040777,52.235098],[21.04031,52.235554],[21.039835,52.236005],[21.039352,52.236452],[21.038861,52.236895],[21.038362,52.237335],[21.037854,52.237771],[21.037338,52.238204],[21.036387,52.238975],[21.030358,52.243193],[21.023131,52.24732],[21.020371,52.249431],[21.0183,52.251478],[21.010042,52.260408],[21.00592,52.260162],[21.003585,52.259368],[20.999171,52.259395],[20.99318,52.259429],[20.988816,52.259586],[20.983635,52.259656],[20.981284,52.258167],[20.983715,52.253262],[20.993432,52.242074],[20.998171,52.233438],[21.001812,52.227714],[21.004755,52.22297],[21.005792,52.21457],[21.017828,52.212669],[21.021526,52.213004],[21.023474,52.212173],[21.024747,52.211074],[21.025716,52.209414],[21.028623,52.207197],[21.029255,52.206924],[21.029755,52.206826],[21.03028,52.206818],[21.032366,52.207044],[21.03623,52.209581],[21.044817,52.209758],[21.046761,52.21442],[21.056462,52.215928],[21.059669,52.21642],[21.061505,52.216808],[21.061874,52.217196]]]}},{"type":"Feature","properties":{"name":"Targówek","source":"City of Warsaw WFS GRANICE_DZIELNIC","updated":"17/04/18"},"geometry":{"type":"Polygon","coordinates":[[[21.062018,52.308382],[21.061431,52.308293],[21.060081,52.306882],[21.055612,52.30585],[21.05188,52.304906],[21.050913,52.30487],[21.048489,52.304256],[21.044918,52.303352],[21.042342,52.302699],[21.041152,52.302407],[21.040285,52.302188],[21.037849,52.301609],[21.034568,52.300796],[21.032714,52.300394],[21.031405,52.300771],[21.031129,52.299886],[21.029925,52.299521],[21.02812,52.29914],[21.024011,52.298365],[21.02283,52.298412],[21.021121,52.296965],[21.019693,52.29645],[21.016841,52.296838],[21.013207,52.297539],[21.013125,52.294851],[21.013885,52.293181],[21.020694,52.281144],[21.023771,52.275462],[21.026848,52.271906],[21.027745,52.271542],[21.028779,52.271297],[21.031401,52.270936],[21.035621,52.269073],[21.037511,52.268339],[21.038286,52.268033],[21.038566,52.26798],[21.040753,52.267459],[21.043934,52.266664],[21.049478,52.264998],[21.05469,52.263553],[21.055704,52.263384],[21.057504,52.263144],[21.061656,52.261966],[21.06403,52.261339],[21.065108,52.261054],[21.066554,52.260666],[21.070359,52.259767],[21.073023,52.259161],[21.075624,52.25911],[21.082167,52.260057],[21.083008,52.260128],[21.088821,52.260554],[21.093216,52.260388],[21.103683,52.259925],[21.110769,52.259648],[21.110268,52.261203],[21.110106,52.261706],[21.109964,52.262149],[21.109861,52.262469],[21.109766,52.262762],[21.109591,52.263307],[21.10917,52.264573],[21.108866,52.265491],[21.108337,52.267089],[21.108,52.267798],[21.108933,52.269083],[21.109662,52.270813],[21.107911,52.274284],[21.1007,52.283705],[21.100195,52.28481],[21.099346,52.28593],[21.096712,52.286221],[21.094938,52.288063],[21.087945,52.295409],[21.085423,52.299455],[21.084667,52.305059],[21.08378,52.307009],[21.077558,52.307775],[21.069783,52.307766],[21.065638,52.307661],[21.063608,52.307485],[21.062287,52.307332],[21.062018,52.308382]]]}},{"type":"Feature","properties":{"name":"Ursus","source":"City of Warsaw WFS GRANICE_DZIELNIC","updated":"17/04/18"},"geometry":{"type":"Polygon","coordinates":[[[20.87858,52.20955],[20.872754,52.209122],[20.870584,52.20884],[20.86786,52.208538],[20.864843,52.20818],[20.86319,52.207881],[20.861062,52.207718],[20.858079,52.207099],[20.8556,52.206153],[20.854283,52.205346],[20.852896,52.20406],[20.852764,52.203925],[20.851784,52.201425],[20.852161,52.199791],[20.852338,52.198723],[20.853298,52.197268],[20.853458,52.196271],[20.85556,52.192919],[20.856792,52.191839],[20.85693,52.190498],[20.856599,52.188648],[20.858587,52.188336],[20.861575,52.189288],[20.864078,52.189795],[20.865382,52.190424],[20.866567,52.190595],[20.867139,52.190465],[20.867098,52.18806],[20.867148,52.184015],[20.867998,52.182547],[20.869994,52.182531],[20.871714,52.182463],[20.872568,52.182375],[20.873707,52.182352],[20.874839,52.182343],[20.87571,52.182407],[20.876449,52.182432],[20.87762,52.182465],[20.878259,52.182483],[20.879296,52.182539],[20.880643,52.182493],[20.882145,52.182477],[20.883247,52.182517],[20.88434,52.182541],[20.885372,52.182564],[20.886353,52.182566],[20.887547,52.182558],[20.888831,52.182556],[20.891955,52.182544],[20.893402,52.182537],[20.895084,52.182611],[20.897277,52.18254],[20.901501,52.184427],[20.902186,52.184173],[20.903928,52.183969],[20.905604,52.184248],[20.906829,52.184354],[20.908088,52.184467],[20.909085,52.184926],[20.909208,52.185858],[20.912672,52.18582],[20.914968,52.18618],[20.916101,52.187889],[20.916709,52.189158],[20.916925,52.189623],[20.917979,52.191678],[20.918838,52.193168],[20.919013,52.193704],[20.915902,52.192762],[20.914509,52.193107],[20.912405,52.194095],[20.910623,52.195568],[20.910668,52.19598],[20.909208,52.196449],[20.906427,52.19758],[20.90447,52.198044],[20.90244,52.198595],[20.901233,52.199205],[20.900121,52.200011],[20.900077,52.200695],[20.898439,52.202052],[20.896337,52.202755],[20.892767,52.204304],[20.888014,52.20613],[20.885995,52.207015],[20.88034,52.209065],[20.87833,52.209238],[20.87858,52.20955]]]}},{"type":"Feature","properties":{"name":"Ursynów","source":"City of Warsaw WFS GRANICE_DZIELNIC","updated":"17/04/18"},"geometry":{"type":"Polygon","coordinates":[[[20.98653,52.162306],[20.987249,52.158561],[20.988025,52.1542],[20.988721,52.147884],[20.986797,52.142017],[20.983497,52.137115],[20.979963,52.130371],[20.981242,52.126074],[20.985366,52.119756],[20.984501,52.112717],[20.987433,52.103807],[20.998851,52.10355],[21.002973,52.103586],[21.007393,52.103627],[21.013415,52.103662],[21.018702,52.103709],[21.025274,52.106132],[21.029288,52.106165],[21.034059,52.106181],[21.037544,52.108184],[21.041729,52.111135],[21.051962,52.108566],[21.070005,52.102008],[21.083612,52.099593],[21.098302,52.104877],[21.101583,52.107685],[21.098515,52.109062],[21.095371,52.113489],[21.088764,52.114852],[21.0925,52.116652],[21.089933,52.117508],[21.088045,52.118775],[21.089698,52.118619],[21.089124,52.12018],[21.087177,52.123322],[21.084643,52.12482],[21.085547,52.124748],[21.086552,52.125403],[21.085538,52.12606],[21.085202,52.125395],[21.083295,52.125085],[21.084521,52.12583],[21.082536,52.125801],[21.08467,52.12638],[21.084467,52.127487],[21.082708,52.128551],[21.081921,52.128097],[21.082468,52.129058],[21.081351,52.130001],[21.081084,52.131455],[21.081434,52.131961],[21.079787,52.132425],[21.076604,52.132549],[21.079347,52.133184],[21.080016,52.134452],[21.078545,52.135229],[21.078159,52.13462],[21.076881,52.135291],[21.073948,52.137378],[21.071069,52.140482],[21.068624,52.143387],[21.066424,52.148347],[21.062899,52.150767],[21.061388,52.152293],[21.060702,52.154332],[21.059768,52.155501],[21.058906,52.157131],[21.057385,52.15895],[21.055701,52.160225],[21.05453,52.161944],[21.050733,52.164948],[21.048518,52.166747],[21.051307,52.168985],[21.053796,52.169662],[21.049627,52.172229],[21.0433,52.17501],[21.042601,52.172598],[21.037374,52.168783],[21.030575,52.166869],[21.027542,52.167659],[21.018847,52.164823],[21.013086,52.16555],[21.008715,52.167806],[21.006364,52.167424],[21.004702,52.167814],[21.002551,52.168322],[20.993305,52.170274],[20.988394,52.1711],[20.987123,52.169889],[20.986958,52.163704],[20.98653,52.162306]]]}},{"type":"Feature","properties":{"name":"Wawer","source":"City of Warsaw WFS GRANICE_DZIELNIC","updated":"17/04/18"},"geometry":{"type":"Polygon","coordinates":[[[21.108009,52.189131],[21.111534,52.185158],[21.115121,52.182138],[21.119324,52.179552],[21.124142,52.177387],[21.129046,52.175647],[21.134847,52.172645],[21.138699,52.169488],[21.141763,52.165224],[21.143067,52.160775],[21.144818,52.157211],[21.14798,52.154376],[21.152753,52.152087],[21.157531,52.150549],[21.161433,52.148182],[21.163815,52.145145],[21.178,52.148816],[21.188857,52.149501],[21.194316,52.150019],[21.199714,52.150516],[21.204208,52.151029],[21.211302,52.151768],[21.215202,52.151885],[21.219041,52.153377],[21.22912,52.157105],[21.238098,52.157485],[21.242449,52.155669],[21.249491,52.150437],[21.255774,52.147206],[21.258024,52.155375],[21.26144,52.165691],[21.267692,52.167479],[21.268794,52.169869],[21.271151,52.17215],[21.267825,52.17578],[21.259765,52.182555],[21.256845,52.189402],[21.246229,52.193538],[21.241038,52.195564],[21.238712,52.196918],[21.232347,52.197109],[21.227315,52.197117],[21.222448,52.197173],[21.215353,52.202055],[21.216069,52.207967],[21.21516,52.211287],[21.214767,52.212772],[21.209668,52.216953],[21.207292,52.221419],[21.207312,52.226185],[21.207467,52.233141],[21.197678,52.234521],[21.184981,52.239421],[21.176436,52.245139],[21.160953,52.242926],[21.155145,52.241806],[21.143698,52.239451],[21.139403,52.243262],[21.135923,52.241646],[21.134739,52.240734],[21.133572,52.239723],[21.132642,52.239061],[21.131816,52.238273],[21.131156,52.237635],[21.130364,52.236885],[21.12988,52.236414],[21.12897,52.235521],[21.127905,52.234312],[21.12672,52.233029],[21.124681,52.232486],[21.119465,52.232419],[21.116343,52.230459],[21.103881,52.222463],[21.096384,52.217741],[21.092647,52.215092],[21.09611,52.213231],[21.099241,52.21089],[21.101528,52.208462],[21.103309,52.205538],[21.10421,52.202615],[21.104308,52.199628],[21.104368,52.196789],[21.105295,52.193548],[21.107505,52.189818],[21.108009,52.189131]]]}},{"type":"Feature","properties":{"name":"Wesoła","source":"City of Warsaw WFS GRANICE_DZIELNIC","updated":"17/04/18"},"geometry":{"type":"Polygon","coordinates":[[[21.192342,52.236576],[21.197678,52.234521],[21.200092,52.234724],[21.20683,52.233365],[21.211352,52.229566],[21.207769,52.227881],[21.207255,52.224423],[21.207247,52.224106],[21.207202,52.220625],[21.208231,52.218514],[21.209678,52.216943],[21.213356,52.214314],[21.214813,52.212721],[21.215277,52.212159],[21.21516,52.211287],[21.214887,52.208912],[21.216023,52.208053],[21.217597,52.206043],[21.216554,52.203601],[21.215644,52.200463],[21.219142,52.197227],[21.222943,52.197165],[21.225441,52.197136],[21.227655,52.197096],[21.23126,52.197168],[21.232793,52.19708],[21.235155,52.196971],[21.238712,52.196918],[21.240229,52.19588],[21.242985,52.198375],[21.246255,52.201029],[21.247924,52.201552],[21.250854,52.202575],[21.250597,52.207759],[21.254875,52.209475],[21.261333,52.209909],[21.258883,52.21314],[21.255492,52.216805],[21.252084,52.220503],[21.250184,52.22256],[21.249472,52.222954],[21.249766,52.225624],[21.250153,52.229303],[21.250428,52.231928],[21.252406,52.233588],[21.253616,52.234623],[21.254406,52.235498],[21.254523,52.236547],[21.254661,52.237772],[21.254235,52.238667],[21.25232,52.23819],[21.251524,52.237897],[21.249408,52.236858],[21.248253,52.236532],[21.246812,52.2363],[21.244813,52.23604],[21.241429,52.236209],[21.239157,52.238162],[21.23872,52.240738],[21.23847,52.24226],[21.237949,52.245027],[21.246177,52.245442],[21.252555,52.245708],[21.254428,52.251299],[21.250466,52.26269],[21.190689,52.255323],[21.190187,52.250017],[21.189274,52.25162],[21.187822,52.252008],[21.186974,52.250781],[21.186177,52.250219],[21.183735,52.248096],[21.184288,52.247159],[21.184114,52.246344],[21.177707,52.244368],[21.180909,52.242006],[21.185119,52.239343],[21.192342,52.236576]]]}},{"type":"Feature","properties":{"name":"Wilanów","source":"City of Warsaw WFS GRANICE_DZIELNIC","updated":"17/04/18"},"geometry":{"type":"Polygon","coordinates":[[[21.105,52.19428],[21.101545,52.192386],[21.100988,52.192221],[21.099739,52.191517],[21.099179,52.190223],[21.09927,52.187716],[21.097791,52.186363],[21.095769,52.185884],[21.09465,52.184018],[21.094491,52.181463],[21.088907,52.181401],[21.08516,52.183002],[21.080818,52.184413],[21.075715,52.181256],[21.07174,52.178393],[21.069802,52.177359],[21.068862,52.176616],[21.066951,52.175928],[21.063423,52.174969],[21.06743,52.17118],[21.06803,52.169738],[21.059911,52.170194],[21.053859,52.169439],[21.048272,52.168423],[21.048576,52.165547],[21.05257,52.163542],[21.055554,52.16103],[21.056881,52.159689],[21.058301,52.157946],[21.059752,52.155769],[21.060521,52.154566],[21.061087,52.152882],[21.063159,52.1514],[21.066399,52.148361],[21.068624,52.143387],[21.071288,52.140227],[21.074133,52.137164],[21.077278,52.135223],[21.077958,52.134373],[21.078636,52.135337],[21.080008,52.13393],[21.078464,52.13305],[21.078719,52.132763],[21.080734,52.132868],[21.081236,52.131611],[21.08136,52.130775],[21.082247,52.129695],[21.081616,52.128213],[21.08238,52.127972],[21.084018,52.1278],[21.085077,52.126576],[21.082559,52.125856],[21.084368,52.12582],[21.083295,52.125085],[21.085241,52.125414],[21.085646,52.126073],[21.086508,52.125206],[21.085354,52.124795],[21.08493,52.124717],[21.088811,52.122601],[21.091725,52.118421],[21.088286,52.118872],[21.087042,52.117658],[21.091874,52.117073],[21.093495,52.114508],[21.092052,52.114164],[21.0972,52.110588],[21.100908,52.108138],[21.110461,52.115383],[21.120729,52.119311],[21.125174,52.122558],[21.127685,52.126258],[21.135466,52.126528],[21.140231,52.131753],[21.148221,52.138667],[21.154063,52.140408],[21.163101,52.146371],[21.157876,52.150398],[21.150403,52.153026],[21.144818,52.157211],[21.142582,52.163128],[21.138403,52.169786],[21.131418,52.174597],[21.123366,52.17769],[21.116334,52.181308],[21.110637,52.186059],[21.106026,52.192109],[21.105,52.19428]]]}},{"type":"Feature","properties":{"name":"Włochy","source":"City of Warsaw WFS GRANICE_DZIELNIC","updated":"17/04/18"},"geometry":{"type":"Polygon","coordinates":[[[20.920003,52.214198],[20.914394,52.214635],[20.911429,52.213819],[20.907365,52.213416],[20.899554,52.212454],[20.897172,52.212138],[20.893379,52.211653],[20.886766,52.210832],[20.881858,52.209881],[20.880842,52.209439],[20.886922,52.206638],[20.893425,52.204018],[20.900251,52.201568],[20.900195,52.199919],[20.903686,52.198221],[20.906942,52.197386],[20.910454,52.195653],[20.913459,52.193596],[20.917923,52.193374],[20.918666,52.192913],[20.916832,52.189488],[20.915635,52.187105],[20.913493,52.183482],[20.913791,52.179069],[20.916847,52.178004],[20.919158,52.17647],[20.920914,52.170964],[20.923381,52.168987],[20.924861,52.167662],[20.926753,52.165362],[20.93031,52.16316],[20.932961,52.161999],[20.939443,52.159591],[20.943451,52.158437],[20.947702,52.157013],[20.953738,52.155198],[20.954687,52.152705],[20.956272,52.151625],[20.958081,52.150294],[20.959828,52.149335],[20.963043,52.14797],[20.967933,52.146121],[20.970623,52.145305],[20.972625,52.144879],[20.975595,52.144305],[20.980068,52.142283],[20.984529,52.142154],[20.989332,52.142571],[20.988761,52.146607],[20.988362,52.15102],[20.987901,52.153846],[20.987628,52.157714],[20.986809,52.158656],[20.98729,52.160473],[20.98653,52.162306],[20.986815,52.166356],[20.987127,52.169008],[20.986954,52.171243],[20.986978,52.174676],[20.986844,52.179677],[20.9868,52.181816],[20.986749,52.184514],[20.98662,52.18874],[20.986364,52.18992],[20.985253,52.191238],[20.982847,52.19258],[20.97776,52.193796],[20.9735,52.194828],[20.965935,52.196582],[20.963817,52.197045],[20.96247,52.197425],[20.956381,52.198799],[20.94741,52.200895],[20.943925,52.202865],[20.941929,52.204507],[20.937665,52.208558],[20.936515,52.210894],[20.935427,52.212031],[20.932472,52.211386],[20.929704,52.210764],[20.927416,52.209969],[20.926834,52.209837],[20.925475,52.20976],[20.924391,52.210158],[20.923039,52.210728],[20.922485,52.211486],[20.922665,52.212466],[20.923733,52.213229],[20.924231,52.213822],[20.920003,52.214198]]]}},{"type":"Feature","properties":{"name":"Wola","source":"City of Warsaw WFS GRANICE_DZIELNIC","updated":"17/04/18"},"geometry":{"type":"Polygon","coordinates":[[[20.981206,52.258554],[20.977927,52.25861],[20.973618,52.256996],[20.972328,52.256474],[20.970136,52.2556],[20.966372,52.254562],[20.963185,52.255021],[20.961145,52.25545],[20.956271,52.255466],[20.951749,52.255502],[20.948373,52.256509],[20.944128,52.252445],[20.939009,52.250171],[20.938534,52.249892],[20.936353,52.248787],[20.932698,52.246921],[20.92827,52.244688],[20.927231,52.244091],[20.925683,52.24256],[20.924869,52.241191],[20.924967,52.240427],[20.924342,52.23906],[20.923417,52.236149],[20.922751,52.234229],[20.922462,52.23327],[20.922094,52.23204],[20.92174,52.230856],[20.921427,52.229835],[20.921421,52.2289],[20.921617,52.227827],[20.922368,52.226308],[20.92365,52.22384],[20.924538,52.222028],[20.924534,52.221167],[20.923431,52.219491],[20.920613,52.218113],[20.917894,52.217575],[20.915457,52.217101],[20.916255,52.214478],[20.922575,52.213718],[20.92432,52.213616],[20.923572,52.213163],[20.92273,52.212552],[20.922437,52.211778],[20.922689,52.211073],[20.923336,52.210529],[20.924511,52.21014],[20.925465,52.209867],[20.9264,52.209783],[20.927095,52.209908],[20.927844,52.210081],[20.930042,52.210867],[20.932438,52.211448],[20.93443,52.211886],[20.938152,52.212339],[20.942984,52.214204],[20.945666,52.214545],[20.948045,52.214415],[20.952305,52.214351],[20.956036,52.215325],[20.95741,52.216691],[20.958939,52.217795],[20.960112,52.218301],[20.962051,52.218608],[20.966943,52.219831],[20.969569,52.219946],[20.973055,52.221386],[20.975902,52.222113],[20.977062,52.222348],[20.980418,52.223341],[20.989161,52.225374],[20.991236,52.225677],[20.99582,52.226684],[21.001272,52.227877],[20.999481,52.231336],[20.997915,52.234058],[20.993784,52.241667],[20.988904,52.247289],[20.982938,52.254175],[20.981466,52.257321],[20.981206,52.258554]]]}},{"type":"Feature","properties":{"name":"Żoliborz","source":"City of Warsaw WFS GRANICE_DZIELNIC","updated":"17/04/18"},"geometry":{"type":"Polygon","coordinates":[[[20.95755,52.266928],[20.955081,52.26475],[20.952407,52.262708],[20.949999,52.259577],[20.94786,52.255919],[20.951474,52.25552],[20.954218,52.255386],[20.95672,52.255529],[20.960026,52.255829],[20.963066,52.255026],[20.965464,52.254302],[20.968842,52.255415],[20.97028,52.255649],[20.972246,52.256446],[20.972794,52.256631],[20.974158,52.257275],[20.979428,52.259138],[20.981027,52.259435],[20.982835,52.259591],[20.98494,52.259748],[20.98662,52.259637],[20.989201,52.259549],[20.992009,52.259453],[20.995027,52.25939],[20.998176,52.259415],[20.999925,52.259062],[21.003439,52.259386],[21.003997,52.259498],[21.005741,52.260255],[21.00777,52.260658],[21.009102,52.261555],[21.008585,52.262244],[21.008097,52.262941],[21.007636,52.263645],[21.007208,52.264356],[21.006807,52.265074],[21.006437,52.265798],[21.006096,52.266527],[21.005786,52.267261],[21.005551,52.267876],[21.005296,52.268619],[21.005073,52.269365],[21.00488,52.270114],[21.004719,52.270866],[21.004524,52.272086],[21.004393,52.273666],[21.004342,52.274723],[21.004126,52.276241],[21.003639,52.278036],[21.003194,52.279178],[21.002809,52.279995],[21.002371,52.280803],[21.001882,52.281599],[21.001342,52.282383],[21.000752,52.283154],[21.000113,52.283909],[20.999425,52.284648],[20.998691,52.285371],[20.99791,52.286074],[20.996522,52.287196],[20.990002,52.285159],[20.986618,52.286397],[20.985723,52.285155],[20.985571,52.283718],[20.984552,52.283082],[20.983502,52.282597],[20.978399,52.280245],[20.974214,52.277849],[20.971266,52.276187],[20.970478,52.275719],[20.969554,52.275196],[20.966843,52.27419],[20.96592,52.274257],[20.964602,52.273874],[20.964078,52.272947],[20.962745,52.271376],[20.962164,52.270731],[20.96207,52.270679],[20.961264,52.270157],[20.95827,52.268023],[20.95791,52.267628],[20.957595,52.267121],[20.95755,52.266928]]]}}]}